start=new Date('2022-10-30T00:00:00.000Z').valueOf();
sats=[{"REF_FRAME":"TEME","MEAN_MOTION":"15.06383300","LAUNCH_DATE":"2021-05-26","OBJECT_TYPE":"PAYLOAD","FILE":"3637537","PERIOD":"95.593","ARG_OF_PERICENTER":"52.0792","CENTER_NAME":"EARTH","MEAN_ELEMENT_THEORY":"SGP4","REV_AT_EPOCH":"7974","NORAD_CAT_ID":"48665","TIME_SYSTEM":"UTC","CLASSIFICATION_TYPE":"U","INCLINATION":"53.0549","RCS_SIZE":"LARGE","PERIAPSIS":"545.815","OBJECT_ID":"2021-044AD","BSTAR":"-0.00032014000000","TLE_LINE1":"1 48665U 21044AD  22302.23968875 -.00005045  00000-0 -32014-3 0  9996","ECCENTRICITY":"0.00020930","DECAY_DATE":null,"COUNTRY_CODE":"US","OBJECT_NAME":"STARLINK-2653","MEAN_MOTION_DOT":"-0.00005045","MEAN_MOTION_DDOT":"0.0000000000000","GP_ID":"216447091","APOAPSIS":"548.714","MEAN_ANOMALY":"308.0386","EPOCH":"2022-10-29T05:45:09.108000","TLE_LINE2":"2 48665  53.0549 221.8498 0002093  52.0792 308.0386 15.06383300 79744","SITE":"AFETR","EPHEMERIS_TYPE":"0","SEMIMAJOR_AXIS":"6925.400","RA_OF_ASC_NODE":"221.8498","ELEMENT_SET_NO":"999"},{"OBJECT_ID":"2021-044AE","BSTAR":"0.00003714000000","PERIAPSIS":"545.907","RCS_SIZE":"LARGE","INCLINATION":"53.0553","CLASSIFICATION_TYPE":"U","TIME_SYSTEM":"UTC","MEAN_MOTION_DDOT":"0.0000000000000","MEAN_MOTION_DOT":"0.00000272","OBJECT_NAME":"STARLINK-2666","COUNTRY_CODE":"US","DECAY_DATE":null,"ECCENTRICITY":"0.00018370","TLE_LINE1":"1 48666U 21044AE  22302.51711454  .00000272  00000-0  37140-4 0  9998","TLE_LINE2":"2 48666  53.0553 221.0954 0001837  57.3666 302.7500 15.06411074 78874","MEAN_ANOMALY":"302.7500","EPOCH":"2022-10-29T12:24:38.696256","APOAPSIS":"548.452","GP_ID":"216475598","ELEMENT_SET_NO":"999","SEMIMAJOR_AXIS":"6925.315","RA_OF_ASC_NODE":"221.0954","EPHEMERIS_TYPE":"0","SITE":"AFETR","LAUNCH_DATE":"2021-05-26","MEAN_MOTION":"15.06411074","REF_FRAME":"TEME","FILE":"3637863","OBJECT_TYPE":"PAYLOAD","CENTER_NAME":"EARTH","ARG_OF_PERICENTER":"57.3666","PERIOD":"95.591","NORAD_CAT_ID":"48666","REV_AT_EPOCH":"7887","MEAN_ELEMENT_THEORY":"SGP4"},{"TIME_SYSTEM":"UTC","CLASSIFICATION_TYPE":"U","INCLINATION":"53.0545","RCS_SIZE":"LARGE","PERIAPSIS":"546.253","OBJECT_ID":"2021-044AF","BSTAR":"0.00003877700000","TLE_LINE1":"1 48667U 21044AF  22302.75296418  .00000296  00000-0  38777-4 0  9996","ECCENTRICITY":"0.00014240","COUNTRY_CODE":"US","DECAY_DATE":null,"OBJECT_NAME":"STARLINK-2735","MEAN_MOTION_DOT":"0.00000296","MEAN_MOTION_DDOT":"0.0000000000000","GP_ID":"216476850","APOAPSIS":"548.226","MEAN_ANOMALY":"291.8511","EPOCH":"2022-10-29T18:04:16.105152","TLE_LINE2":"2 48667  53.0545 219.5625 0001424  68.2629 291.8511 15.06391492 78922","SITE":"AFETR","EPHEMERIS_TYPE":"0","SEMIMAJOR_AXIS":"6925.375","RA_OF_ASC_NODE":"219.5625","ELEMENT_SET_NO":"999","REF_FRAME":"TEME","MEAN_MOTION":"15.06391492","LAUNCH_DATE":"2021-05-26","OBJECT_TYPE":"PAYLOAD","FILE":"3637863","PERIOD":"95.593","ARG_OF_PERICENTER":"68.2629","CENTER_NAME":"EARTH","MEAN_ELEMENT_THEORY":"SGP4","REV_AT_EPOCH":"7892","NORAD_CAT_ID":"48667"},{"FILE":"3637424","OBJECT_TYPE":"PAYLOAD","REF_FRAME":"TEME","MEAN_MOTION":"15.06406376","LAUNCH_DATE":"2021-05-26","MEAN_ELEMENT_THEORY":"SGP4","NORAD_CAT_ID":"48668","REV_AT_EPOCH":"7883","PERIOD":"95.592","CENTER_NAME":"EARTH","ARG_OF_PERICENTER":"69.6242","COUNTRY_CODE":"US","DECAY_DATE":null,"TLE_LINE1":"1 48668U 21044AG  22302.15215762 -.00000635  00000-0 -23733-4 0  9999","ECCENTRICITY":"0.00016270","MEAN_MOTION_DDOT":"0.0000000000000","OBJECT_NAME":"STARLINK-2738","MEAN_MOTION_DOT":"-0.00000635","CLASSIFICATION_TYPE":"U","TIME_SYSTEM":"UTC","PERIAPSIS":"546.067","OBJECT_ID":"2021-044AG","BSTAR":"-0.00002373300000","INCLINATION":"53.0554","RCS_SIZE":"LARGE","EPHEMERIS_TYPE":"0","SITE":"AFETR","ELEMENT_SET_NO":"999","SEMIMAJOR_AXIS":"6925.329","RA_OF_ASC_NODE":"222.2508","GP_ID":"216441034","MEAN_ANOMALY":"290.4922","EPOCH":"2022-10-29T03:39:06.418368","TLE_LINE2":"2 48668  53.0554 222.2508 0001627  69.6242 290.4922 15.06406376 78834","APOAPSIS":"548.321"},{"GP_ID":"216475849","EPOCH":"2022-10-29T19:29:12.773760","MEAN_ANOMALY":"272.1472","TLE_LINE2":"2 48669  53.0551 219.2753 0001349  87.9672 272.1472 15.06391421 78922","APOAPSIS":"548.174","EPHEMERIS_TYPE":"0","SITE":"AFETR","ELEMENT_SET_NO":"999","RA_OF_ASC_NODE":"219.2753","SEMIMAJOR_AXIS":"6925.375","CLASSIFICATION_TYPE":"U","TIME_SYSTEM":"UTC","PERIAPSIS":"546.306","BSTAR":"-0.00001207400000","OBJECT_ID":"2021-044AH","INCLINATION":"53.0551","RCS_SIZE":"LARGE","COUNTRY_CODE":"US","DECAY_DATE":null,"TLE_LINE1":"1 48669U 21044AH  22302.81195340 -.00000461  00000-0 -12074-4 0  9995","ECCENTRICITY":"0.00013490","MEAN_MOTION_DDOT":"0.0000000000000","OBJECT_NAME":"STARLINK-2707","MEAN_MOTION_DOT":"-0.00000461","PERIOD":"95.593","CENTER_NAME":"EARTH","ARG_OF_PERICENTER":"87.9672","MEAN_ELEMENT_THEORY":"SGP4","NORAD_CAT_ID":"48669","REV_AT_EPOCH":"7892","REF_FRAME":"TEME","MEAN_MOTION":"15.06391421","LAUNCH_DATE":"2021-05-26","FILE":"3637863","OBJECT_TYPE":"PAYLOAD"},{"MEAN_MOTION":"15.06412634","LAUNCH_DATE":"2021-05-26","REF_FRAME":"TEME","OBJECT_TYPE":"PAYLOAD","FILE":"3637863","ARG_OF_PERICENTER":"72.9241","CENTER_NAME":"EARTH","PERIOD":"95.591","REV_AT_EPOCH":"7892","NORAD_CAT_ID":"48670","MEAN_ELEMENT_THEORY":"SGP4","INCLINATION":"53.0555","RCS_SIZE":"LARGE","PERIAPSIS":"546.065","BSTAR":"0.00022221000000","OBJECT_ID":"2021-044AJ","TIME_SYSTEM":"UTC","CLASSIFICATION_TYPE":"U","OBJECT_NAME":"STARLINK-2763","MEAN_MOTION_DOT":"0.00003031","MEAN_MOTION_DDOT":"0.0000000000000","TLE_LINE1":"1 48670U 21044AJ  22302.80824882  .00003031  00000-0  22221-3 0  9994","ECCENTRICITY":"0.00016030","DECAY_DATE":null,"COUNTRY_CODE":"US","APOAPSIS":"548.285","MEAN_ANOMALY":"287.1924","EPOCH":"2022-10-29T19:23:52.698048","TLE_LINE2":"2 48670  53.0555 219.2961 0001603  72.9241 287.1924 15.06412634 78926","GP_ID":"216476099","SEMIMAJOR_AXIS":"6925.310","RA_OF_ASC_NODE":"219.2961","ELEMENT_SET_NO":"999","SITE":"AFETR","EPHEMERIS_TYPE":"0"},{"MEAN_ELEMENT_THEORY":"SGP4","NORAD_CAT_ID":"48671","REV_AT_EPOCH":"7892","PERIOD":"95.592","CENTER_NAME":"EARTH","ARG_OF_PERICENTER":"49.4251","FILE":"3637863","OBJECT_TYPE":"PAYLOAD","REF_FRAME":"TEME","MEAN_MOTION":"15.06399644","LAUNCH_DATE":"2021-05-26","EPHEMERIS_TYPE":"0","SITE":"AFETR","ELEMENT_SET_NO":"999","SEMIMAJOR_AXIS":"6925.350","RA_OF_ASC_NODE":"219.3205","GP_ID":"216476350","EPOCH":"2022-10-29T19:18:34.614720","MEAN_ANOMALY":"310.6879","TLE_LINE2":"2 48671  53.0545 219.3205 0001619  49.4251 310.6879 15.06399644 78921","APOAPSIS":"548.336","COUNTRY_CODE":"US","DECAY_DATE":null,"TLE_LINE1":"1 48671U 21044AK  22302.80456730  .00000382  00000-0  44546-4 0  9999","ECCENTRICITY":"0.00016190","MEAN_MOTION_DDOT":"0.0000000000000","OBJECT_NAME":"STARLINK-2745","MEAN_MOTION_DOT":"0.00000382","CLASSIFICATION_TYPE":"U","TIME_SYSTEM":"UTC","PERIAPSIS":"546.093","OBJECT_ID":"2021-044AK","BSTAR":"0.00004454600000","INCLINATION":"53.0545","RCS_SIZE":"LARGE"},{"APOAPSIS":"548.320","TLE_LINE2":"2 48672  53.0537 219.3472 0001628  65.0331 295.0827 15.06406979 78921","EPOCH":"2022-10-29T19:13:15.915360","MEAN_ANOMALY":"295.0827","GP_ID":"216476580","SEMIMAJOR_AXIS":"6925.327","RA_OF_ASC_NODE":"219.3472","ELEMENT_SET_NO":"999","SITE":"AFETR","EPHEMERIS_TYPE":"0","RCS_SIZE":"LARGE","INCLINATION":"53.0537","BSTAR":"0.00009121300000","OBJECT_ID":"2021-044AL","PERIAPSIS":"546.065","TIME_SYSTEM":"UTC","CLASSIFICATION_TYPE":"U","MEAN_MOTION_DOT":"0.00001078","OBJECT_NAME":"STARLINK-2705","MEAN_MOTION_DDOT":"0.0000000000000","ECCENTRICITY":"0.00016280","TLE_LINE1":"1 48672U 21044AL  22302.80087865  .00001078  00000-0  91213-4 0  9995","DECAY_DATE":null,"COUNTRY_CODE":"US","ARG_OF_PERICENTER":"65.0331","CENTER_NAME":"EARTH","PERIOD":"95.592","REV_AT_EPOCH":"7892","NORAD_CAT_ID":"48672","MEAN_ELEMENT_THEORY":"SGP4","LAUNCH_DATE":"2021-05-26","MEAN_MOTION":"15.06406979","REF_FRAME":"TEME","OBJECT_TYPE":"PAYLOAD","FILE":"3637863"},{"REF_FRAME":"TEME","LAUNCH_DATE":"2021-05-26","MEAN_MOTION":"15.06390342","FILE":"3637863","OBJECT_TYPE":"PAYLOAD","PERIOD":"95.593","CENTER_NAME":"EARTH","ARG_OF_PERICENTER":"65.0880","MEAN_ELEMENT_THEORY":"SGP4","NORAD_CAT_ID":"48673","REV_AT_EPOCH":"7891","CLASSIFICATION_TYPE":"U","TIME_SYSTEM":"UTC","BSTAR":"0.00011099000000","OBJECT_ID":"2021-044AM","PERIAPSIS":"546.109","RCS_SIZE":"LARGE","INCLINATION":"53.0518","COUNTRY_CODE":"US","DECAY_DATE":null,"ECCENTRICITY":"0.00016380","TLE_LINE1":"1 48673U 21044AM  22302.73085585  .00001372  00000-0  11099-3 0  9995","MEAN_MOTION_DDOT":"0.0000000000000","MEAN_MOTION_DOT":"0.00001372","OBJECT_NAME":"STARLINK-2711","GP_ID":"216475349","TLE_LINE2":"2 48673  53.0518 219.6600 0001638  65.0880 295.0279 15.06390342 78913","MEAN_ANOMALY":"295.0279","EPOCH":"2022-10-29T17:32:25.945440","APOAPSIS":"548.378","EPHEMERIS_TYPE":"0","SITE":"AFETR","ELEMENT_SET_NO":"999","SEMIMAJOR_AXIS":"6925.378","RA_OF_ASC_NODE":"219.6600"},{"CLASSIFICATION_TYPE":"U","TIME_SYSTEM":"UTC","OBJECT_ID":"2021-044AN","BSTAR":"-0.00022241000000","PERIAPSIS":"546.019","RCS_SIZE":"LARGE","INCLINATION":"53.0539","COUNTRY_CODE":"US","DECAY_DATE":null,"ECCENTRICITY":"0.00017270","TLE_LINE1":"1 48674U 21044AN  22302.19543240 -.00003593  00000-0 -22241-3 0  9993","MEAN_MOTION_DDOT":"0.0000000000000","MEAN_MOTION_DOT":"-0.00003593","OBJECT_NAME":"STARLINK-2712","GP_ID":"216439540","TLE_LINE2":"2 48674  53.0539 222.0521 0001727  54.5779 305.5371 15.06399368 78834","MEAN_ANOMALY":"305.5371","EPOCH":"2022-10-29T04:41:25.359360","APOAPSIS":"548.412","EPHEMERIS_TYPE":"0","SITE":"AFETR","ELEMENT_SET_NO":"999","RA_OF_ASC_NODE":"222.0521","SEMIMAJOR_AXIS":"6925.350","REF_FRAME":"TEME","LAUNCH_DATE":"2021-05-26","MEAN_MOTION":"15.06399368","FILE":"3637424","OBJECT_TYPE":"PAYLOAD","PERIOD":"95.592","CENTER_NAME":"EARTH","ARG_OF_PERICENTER":"54.5779","MEAN_ELEMENT_THEORY":"SGP4","NORAD_CAT_ID":"48674","REV_AT_EPOCH":"7883"}];
